{"type": "FeatureCollection", "features": [ {"type": "Feature", "properties": {"norad_id": 64902, "name": "CO3D 2", "group": "resource", "lat": 30.73595413430489, "lon": -105.76303427346052, "alt_km": 503.6528870598577, "timestamp": "2025-12-19T14:48:35.902490+00:00", "meta": {"OBJECT_NAME": "CO3D 2", "OBJECT_ID": "2025-156D", "EPOCH": "2025-12-18T23:56:22.431840", "MEAN_MOTION": 15.20201426, "ECCENTRICITY": 6.127e-05, "INCLINATION": 97.4339, "RA_OF_ASC_NODE": 69.1735, "ARG_OF_PERICENTER": 62.3895, "MEAN_ANOMALY": 297.7402, "EPHEMERIS_TYPE": 0, "CLASSIFICATION_TYPE": "U", "NORAD_CAT_ID": 64902, "ELEMENT_SET_NO": 999, "REV_AT_EPOCH": 2215, "BSTAR": 2.1688322e-05, "MEAN_MOTION_DOT": 4.02e-06, "MEAN_MOTION_DDOT": 0}, "tle": {"line1": "1 64902U 25156D   25352.99748185  .00000402  00000+0  21688-4 0  9992", "line2": "2 64902  97.4339  69.1735 0000612  62.3895 297.7402 15.20201426 22155"}}, "geometry": {"type": "Point", "coordinates": [-105.76303427346052, 30.73595413430489]}}, {"type": "Feature", "properties": {"norad_id": 64903, "name": "CO3D 1", "group": "resource", "lat": 31.52492736194792, "lon": -105.62103289815349, "alt_km": 503.33888668315376, "timestamp": "2025-12-19T14:48:35.902501+00:00", "meta": {"OBJECT_NAME": "CO3D 1", "OBJECT_ID": "2025-156E", "EPOCH": "2025-12-19T06:15:43.614144", "MEAN_MOTION": 15.20208246, "ECCENTRICITY": 8.472e-05, "INCLINATION": 97.4345, "RA_OF_ASC_NODE": 69.4337, "ARG_OF_PERICENTER": 76.5971, "MEAN_ANOMALY": 283.5359, "EPHEMERIS_TYPE": 0, "CLASSIFICATION_TYPE": "U", "NORAD_CAT_ID": 64903, "ELEMENT_SET_NO": 999, "REV_AT_EPOCH": 2219, "BSTAR": 0.00010355418, "MEAN_MOTION_DOT": 2.175e-05, "MEAN_MOTION_DDOT": 0}, "tle": {"line1": "1 64903U 25156E   25353.26092146  .00002175  00000+0  10355-3 0  9990", "line2": "2 64903  97.4345  69.4337 0000847  76.5971 283.5359 15.20208246 22191"}}, "geometry": {"type": "Point", "coordinates": [-105.62103289815349, 31.52492736194792]}}, {"type": "Feature", "properties": {"norad_id": 66514, "name": "SENTINEL-6B", "group": "resource", "lat": 36.74837160863781, "lon": -51.251093639367134, "alt_km": 1335.645627672293, "timestamp": "2025-12-19T14:48:35.902511+00:00", "meta": {"OBJECT_NAME": "SENTINEL-6B", "OBJECT_ID": "2025-264A", "EPOCH": "2025-12-12T06:01:21.428544", "MEAN_MOTION": 12.81479578, "ECCENTRICITY": 0.00078482, "INCLINATION": 66.0385, "RA_OF_ASC_NODE": 163.4531, "ARG_OF_PERICENTER": 270.1376, "MEAN_ANOMALY": 89.874, "EPHEMERIS_TYPE": 0, "CLASSIFICATION_TYPE": "U", "NORAD_CAT_ID": 66514, "ELEMENT_SET_NO": 999, "REV_AT_EPOCH": 322, "BSTAR": 0.00018573353, "MEAN_MOTION_DOT": -1.8e-07, "MEAN_MOTION_DDOT": 0}, "tle": {"line1": "1 66514U 25264A   25346.25094246 -.00000018  00000+0  18573-3 0  9999", "line2": "2 66514  66.0385 163.4531 0007848 270.1376  89.8740 12.81479578  3223"}}, "geometry": {"type": "Point", "coordinates": [-51.251093639367134, 36.74837160863781]}}]}